STARLINK-3089
1 19166C 21082AN  21326.11791563 -.00038874  00000-0 -32580-3 0  3263
2 19166  69.9980 292.8772 0003616 285.9942  19.6398 15.69774865    16
